{"type":"FeatureCollection","features":[{"type":"Feature","id":1,"geometry":{"type":"Point","coordinates":[13.035834834124882,47.805928057224619]},"properties":{"OBJECTID":1,"Name":"Bärenwirt","Address":"","Email":"","Phone":"","Message":"","dec22":"Müllner Hauptstraße 8, 5020 Salzburg","dec23":"prost@baerenwirt-salzburg.at","dec24":"0662422404","dec25":"","dec26":"11:00-23:00 (Küche 11:30-14:00, 17:30-21:30)","dec27":"11:00-23:00 (Küche 11:30-14:00, 17:30-21:30)","dec28":"geschlossen","dec29":"14:00-23:00 (Küche 17:30-21:30)","dec30":"11:00-23:00 (Küche 11:30-14:00, 17:30-21:30)","dec31":"11:00-23:00 (Küche 11:30-14:00, 17:30-21:30)","jan01":"11:00-23:00 (Küche 11:30-14:00, 17:30-21:30)","jan02":"11:00-23:00 (Küche 11:30-14:00, 17:30-21:30)","jan03":"11:00-23:00 (Küche 11:30-14:00, 17:30-21:30)","jan04":"geschlossen","jan05":"11:00-23:00 (Küche 11:30-14:00, 17:30-21:30)","jan06":"11:00-23:00 (Küche 11:30-14:00, 17:30-21:30)"}},{"type":"Feature","id":2,"geometry":{"type":"Point","coordinates":[13.0435224770875,47.800448856636741]},"properties":{"OBJECTID":2,"Name":"Zum Eulenspiegel","Address":"","Email":"","Phone":"","Message":"","dec22":"Hagenauerpl. 2, 5020 Salzburg","dec23":"Hagenauerpl. 2, 5020 Salzburg","dec24":"6608426688","dec25":"Aktuell sind wir noch in der Planung was Weihnachten betrifft, also kann ich dir noch keine genaueren Informationen geben. Reservierungen sehr gerne per Mail. Weihnachten ist es immer sehr schwer zu sagen, da bereits heute sind einige Reservierungen gebucht. Aber wir schauen natürlich, dass wir für eure Gäste Platz finden.","dec26":"12:00-21:00","dec27":"12:00-21:00","dec28":"12:00-21:00","dec29":"12:00-21:00","dec30":"12:00-21:00","dec31":"12:00-21:00","jan01":"12:00-21:00","jan02":"12:00-21:00","jan03":"12:00-21:00","jan04":"12:00-21:00","jan05":"12:00-21:00","jan06":"12:00-21:00"}}]}